start=new Date('2022-08-07T00:00:00.000Z').valueOf();
sats=[{"MEAN_MOTION_DDOT":"0.0000000000000","RCS_SIZE":"LARGE","MEAN_MOTION_DOT":"-0.00000137","BSTAR":"0.00000968420000","CENTER_NAME":"EARTH","NORAD_CAT_ID":"47376","REF_FRAME":"TEME","MEAN_ELEMENT_THEORY":"SGP4","REV_AT_EPOCH":"8543","OBJECT_ID":"2021-005AD","ELEMENT_SET_NO":"999","LAUNCH_DATE":"2021-01-20","PERIOD":"95.592","PERIAPSIS":"545.913","ECCENTRICITY":"0.00019020","FILE":"3530813","EPOCH":"2022-08-06T15:22:42.120192","ARG_OF_PERICENTER":"65.5399","SITE":"AFETR","EPHEMERIS_TYPE":"0","TLE_LINE2":"2 47376  53.0544 187.1481 0001902  65.5399 294.5788 15.06394438 85435","MEAN_MOTION":"15.06394438","COUNTRY_CODE":"US","OBJECT_NAME":"STARLINK-2096","RA_OF_ASC_NODE":"187.1481","OBJECT_TYPE":"PAYLOAD","TIME_SYSTEM":"UTC","SEMIMAJOR_AXIS":"6925.366","CLASSIFICATION_TYPE":"U","MEAN_ANOMALY":"294.5788","GP_ID":"209724248","INCLINATION":"53.0544","APOAPSIS":"548.548","DECAY_DATE":null,"TLE_LINE1":"1 47376U 21005AD  22218.64076528 -.00000137  00000-0  96842-5 0  9994"},{"SEMIMAJOR_AXIS":"6925.339","CLASSIFICATION_TYPE":"U","MEAN_ANOMALY":"285.2056","GP_ID":"209724498","INCLINATION":"53.0528","APOAPSIS":"548.487","DECAY_DATE":null,"TLE_LINE1":"1 47377U 21005AE  22218.62601581 -.00000153  00000-0  86628-5 0  9995","TLE_LINE2":"2 47377  53.0528 187.2200 0001853  74.9137 285.2056 15.06403254 85439","MEAN_MOTION":"15.06403254","COUNTRY_CODE":"US","OBJECT_NAME":"STARLINK-2097","RA_OF_ASC_NODE":"187.2200","OBJECT_TYPE":"PAYLOAD","TIME_SYSTEM":"UTC","EPOCH":"2022-08-06T15:01:27.765984","ARG_OF_PERICENTER":"74.9137","SITE":"AFETR","EPHEMERIS_TYPE":"0","RCS_SIZE":"LARGE","MEAN_MOTION_DDOT":"0.0000000000000","MEAN_MOTION_DOT":"-0.00000153","CENTER_NAME":"EARTH","BSTAR":"0.00000866280000","NORAD_CAT_ID":"47377","MEAN_ELEMENT_THEORY":"SGP4","REF_FRAME":"TEME","REV_AT_EPOCH":"8543","OBJECT_ID":"2021-005AE","ELEMENT_SET_NO":"999","LAUNCH_DATE":"2021-01-20","PERIOD":"95.592","PERIAPSIS":"545.920","ECCENTRICITY":"0.00018530","FILE":"3530813"},{"ARG_OF_PERICENTER":"72.3076","EPOCH":"2022-08-06T05:17:36.137760","EPHEMERIS_TYPE":"0","SITE":"AFETR","BSTAR":"0.00005398900000","CENTER_NAME":"EARTH","MEAN_MOTION_DOT":"0.00000523","MEAN_MOTION_DDOT":"0.0000000000000","RCS_SIZE":"LARGE","REF_FRAME":"TEME","MEAN_ELEMENT_THEORY":"SGP4","NORAD_CAT_ID":"47378","OBJECT_ID":"2021-005AF","REV_AT_EPOCH":"8593","FILE":"3530579","ECCENTRICITY":"0.00019210","PERIAPSIS":"545.880","LAUNCH_DATE":"2021-01-20","ELEMENT_SET_NO":"999","PERIOD":"95.592","CLASSIFICATION_TYPE":"U","SEMIMAJOR_AXIS":"6925.345","MEAN_ANOMALY":"287.8122","APOAPSIS":"548.541","INCLINATION":"53.0555","GP_ID":"209694146","TLE_LINE1":"1 47378U 21005AF  22218.22055715  .00000523  00000-0  53989-4 0  9997","DECAY_DATE":null,"TLE_LINE2":"2 47378  53.0555 149.0442 0001921  72.3076 287.8122 15.06401005 85933","COUNTRY_CODE":"US","MEAN_MOTION":"15.06401005","RA_OF_ASC_NODE":"149.0442","OBJECT_TYPE":"PAYLOAD","TIME_SYSTEM":"UTC","OBJECT_NAME":"STARLINK-2098"},{"CLASSIFICATION_TYPE":"U","SEMIMAJOR_AXIS":"6925.343","MEAN_ANOMALY":"289.4116","APOAPSIS":"548.523","INCLINATION":"53.0556","GP_ID":"209726001","TLE_LINE1":"1 47379U 21005AG  22218.82504813  .00000323  00000-0  40596-4 0  9990","DECAY_DATE":null,"TLE_LINE2":"2 47379  53.0556 146.3293 0001898  70.7078 289.4116 15.06401779 86026","COUNTRY_CODE":"US","MEAN_MOTION":"15.06401779","OBJECT_TYPE":"PAYLOAD","RA_OF_ASC_NODE":"146.3293","TIME_SYSTEM":"UTC","OBJECT_NAME":"STARLINK-2099","ARG_OF_PERICENTER":"70.7078","EPOCH":"2022-08-06T19:48:04.158432","EPHEMERIS_TYPE":"0","SITE":"AFETR","BSTAR":"0.00004059600000","CENTER_NAME":"EARTH","MEAN_MOTION_DOT":"0.00000323","RCS_SIZE":"LARGE","MEAN_MOTION_DDOT":"0.0000000000000","MEAN_ELEMENT_THEORY":"SGP4","REF_FRAME":"TEME","NORAD_CAT_ID":"47379","OBJECT_ID":"2021-005AG","REV_AT_EPOCH":"8602","FILE":"3530813","ECCENTRICITY":"0.00018980","PERIAPSIS":"545.894","ELEMENT_SET_NO":"999","LAUNCH_DATE":"2021-01-20","PERIOD":"95.592"},{"MEAN_ANOMALY":"287.3007","SEMIMAJOR_AXIS":"6925.334","CLASSIFICATION_TYPE":"U","TLE_LINE1":"1 47380U 21005AH  22218.85361694  .00001103  00000-0  92905-4 0  9991","DECAY_DATE":null,"GP_ID":"209724749","INCLINATION":"53.0565","APOAPSIS":"548.522","MEAN_MOTION":"15.06404709","COUNTRY_CODE":"US","TLE_LINE2":"2 47380  53.0565 156.1788 0001910  72.8191 287.3007 15.06404709 85896","OBJECT_NAME":"STARLINK-2100","RA_OF_ASC_NODE":"156.1788","OBJECT_TYPE":"PAYLOAD","TIME_SYSTEM":"UTC","EPOCH":"2022-08-06T20:29:12.503616","ARG_OF_PERICENTER":"72.8191","SITE":"AFETR","EPHEMERIS_TYPE":"0","NORAD_CAT_ID":"47380","MEAN_ELEMENT_THEORY":"SGP4","REF_FRAME":"TEME","RCS_SIZE":"LARGE","MEAN_MOTION_DDOT":"0.0000000000000","MEAN_MOTION_DOT":"0.00001103","CENTER_NAME":"EARTH","BSTAR":"0.00009290500000","LAUNCH_DATE":"2021-01-20","PERIOD":"95.592","ELEMENT_SET_NO":"999","PERIAPSIS":"545.876","ECCENTRICITY":"0.00019100","FILE":"3530813","REV_AT_EPOCH":"8589","OBJECT_ID":"2021-005AH"},{"SITE":"AFETR","EPHEMERIS_TYPE":"0","EPOCH":"2022-08-06T20:52:27.034176","ARG_OF_PERICENTER":"63.6120","LAUNCH_DATE":"2021-01-20","PERIOD":"95.592","ELEMENT_SET_NO":"999","ECCENTRICITY":"0.00023780","PERIAPSIS":"545.563","FILE":"3530813","REV_AT_EPOCH":"8582","OBJECT_ID":"2021-005AJ","NORAD_CAT_ID":"47381","REF_FRAME":"TEME","MEAN_ELEMENT_THEORY":"SGP4","RCS_SIZE":"LARGE","MEAN_MOTION_DDOT":"0.0000000000000","MEAN_MOTION_DOT":"-0.00001156","BSTAR":"-0.00005871800000","CENTER_NAME":"EARTH","TLE_LINE1":"1 47381U 21005AJ  22218.86975734 -.00001156  00000-0 -58718-4 0  9993","DECAY_DATE":null,"GP_ID":"209724999","INCLINATION":"53.0543","APOAPSIS":"548.857","MEAN_ANOMALY":"296.5113","SEMIMAJOR_AXIS":"6925.345","CLASSIFICATION_TYPE":"U","OBJECT_NAME":"STARLINK-2101","OBJECT_TYPE":"PAYLOAD","RA_OF_ASC_NODE":"161.2010","TIME_SYSTEM":"UTC","MEAN_MOTION":"15.06401096","COUNTRY_CODE":"US","TLE_LINE2":"2 47381  53.0543 161.2010 0002378  63.6120 296.5113 15.06401096 85826"},{"MEAN_ANOMALY":"287.7089","CLASSIFICATION_TYPE":"U","SEMIMAJOR_AXIS":"6925.352","TLE_LINE1":"1 47382U 21005AK  22218.84624998  .00000130  00000-0  27611-4 0  9992","DECAY_DATE":null,"GP_ID":"209725250","APOAPSIS":"548.425","INCLINATION":"53.0541","MEAN_MOTION":"15.06399040","COUNTRY_CODE":"US","TLE_LINE2":"2 47382  53.0541 156.2326 0001745  72.4090 287.7089 15.06399040 85885","OBJECT_NAME":"STARLINK-2102","OBJECT_TYPE":"PAYLOAD","TIME_SYSTEM":"UTC","RA_OF_ASC_NODE":"156.2326","ARG_OF_PERICENTER":"72.4090","EPOCH":"2022-08-06T20:18:35.998272","SITE":"AFETR","EPHEMERIS_TYPE":"0","MEAN_ELEMENT_THEORY":"SGP4","REF_FRAME":"TEME","NORAD_CAT_ID":"47382","RCS_SIZE":"LARGE","MEAN_MOTION_DDOT":"0.0000000000000","BSTAR":"0.00002761100000","CENTER_NAME":"EARTH","MEAN_MOTION_DOT":"0.00000130","PERIAPSIS":"546.008","ECCENTRICITY":"0.00017450","PERIOD":"95.592","LAUNCH_DATE":"2021-01-20","ELEMENT_SET_NO":"999","FILE":"3530813","OBJECT_ID":"2021-005AK","REV_AT_EPOCH":"8588"},{"COUNTRY_CODE":"US","MEAN_MOTION":"15.06405738","TLE_LINE2":"2 47383  53.0536 146.4467 0002006  71.1562 288.9644 15.06405738 86027","OBJECT_TYPE":"PAYLOAD","RA_OF_ASC_NODE":"146.4467","TIME_SYSTEM":"UTC","OBJECT_NAME":"STARLINK-2103","MEAN_ANOMALY":"288.9644","CLASSIFICATION_TYPE":"U","SEMIMAJOR_AXIS":"6925.331","DECAY_DATE":null,"TLE_LINE1":"1 47383U 21005AL  22218.79830134  .00000830  00000-0  74611-4 0  9997","APOAPSIS":"548.585","INCLINATION":"53.0536","GP_ID":"209725501","MEAN_ELEMENT_THEORY":"SGP4","REF_FRAME":"TEME","NORAD_CAT_ID":"47383","CENTER_NAME":"EARTH","BSTAR":"0.00007461100000","MEAN_MOTION_DOT":"0.00000830","MEAN_MOTION_DDOT":"0.0000000000000","RCS_SIZE":"LARGE","FILE":"3530813","PERIAPSIS":"545.807","ECCENTRICITY":"0.00020060","ELEMENT_SET_NO":"999","LAUNCH_DATE":"2021-01-20","PERIOD":"95.592","OBJECT_ID":"2021-005AL","REV_AT_EPOCH":"8602","ARG_OF_PERICENTER":"71.1562","EPOCH":"2022-08-06T19:09:33.235776","EPHEMERIS_TYPE":"0","SITE":"AFETR"},{"TLE_LINE1":"1 47384U 21005AM  22218.83152741  .00000559  00000-0  56446-4 0  9998","DECAY_DATE":null,"INCLINATION":"53.0542","APOAPSIS":"548.683","GP_ID":"209724249","MEAN_ANOMALY":"288.1067","SEMIMAJOR_AXIS":"6925.325","CLASSIFICATION_TYPE":"U","TIME_SYSTEM":"UTC","OBJECT_TYPE":"PAYLOAD","RA_OF_ASC_NODE":"156.5285","OBJECT_NAME":"STARLINK-2104","COUNTRY_CODE":"US","MEAN_MOTION":"15.06407791","TLE_LINE2":"2 47384  53.0542 156.5285 0002156  72.0157 288.1067 15.06407791 85886","EPHEMERIS_TYPE":"0","SITE":"AFETR","EPOCH":"2022-08-06T19:57:23.968224","ARG_OF_PERICENTER":"72.0157","FILE":"3530813","LAUNCH_DATE":"2021-01-20","ELEMENT_SET_NO":"999","PERIOD":"95.592","PERIAPSIS":"545.697","ECCENTRICITY":"0.00021560","REV_AT_EPOCH":"8588","OBJECT_ID":"2021-005AM","NORAD_CAT_ID":"47384","REF_FRAME":"TEME","MEAN_ELEMENT_THEORY":"SGP4","MEAN_MOTION_DOT":"0.00000559","BSTAR":"0.00005644600000","CENTER_NAME":"EARTH","RCS_SIZE":"LARGE","MEAN_MOTION_DDOT":"0.0000000000000"},{"REV_AT_EPOCH":"8588","OBJECT_ID":"2021-005AN","ELEMENT_SET_NO":"999","LAUNCH_DATE":"2021-01-20","PERIOD":"95.592","PERIAPSIS":"546.004","ECCENTRICITY":"0.00017500","FILE":"3530813","MEAN_MOTION_DDOT":"0.0000000000000","RCS_SIZE":"LARGE","MEAN_MOTION_DOT":"0.00000784","CENTER_NAME":"EARTH","BSTAR":"0.00007153200000","NORAD_CAT_ID":"47385","MEAN_ELEMENT_THEORY":"SGP4","REF_FRAME":"TEME","SITE":"AFETR","EPHEMERIS_TYPE":"0","EPOCH":"2022-08-06T19:52:03.051840","ARG_OF_PERICENTER":"71.6245","OBJECT_NAME":"STARLINK-2105","RA_OF_ASC_NODE":"156.3116","OBJECT_TYPE":"PAYLOAD","TIME_SYSTEM":"UTC","TLE_LINE2":"2 47385  53.0541 156.3116 0001750  71.6245 288.4934 15.06399206 85886","MEAN_MOTION":"15.06399206","COUNTRY_CODE":"US","GP_ID":"209724499","INCLINATION":"53.0541","APOAPSIS":"548.428","TLE_LINE1":"1 47385U 21005AN  22218.82781310  .00000784  00000-0  71532-4 0  9991","DECAY_DATE":null,"SEMIMAJOR_AXIS":"6925.351","CLASSIFICATION_TYPE":"U","MEAN_ANOMALY":"288.4934"}];
